{
  "type": "FeatureCollection",
  "features": [
    {
      "type": "Feature",
      "properties": {
        "norad_id": 34420,
        "name": "COSMOS 2251 DEB",
        "group": "cosmos-2251-debris",
        "lat": -20.84077278599031,
        "lon": -55.743601454431456,
        "alt_km": 612.8115797584978,
        "timestamp": "2025-12-05T11:32:56.411488+00:00",
        "meta_object_name": "COSMOS 2251 DEB",
        "meta_object_id": "1993-036RM",
        "meta_epoch": "2025-12-04T13:56:25.802880",
        "meta_mean_motion": 14.68258552,
        "meta_eccentricity": 0.0106929,
        "meta_inclination": 74.0328,
        "meta_ra_of_asc_node": 119.7398,
        "meta_arg_of_pericenter": 242.7524,
        "meta_mean_anomaly": 242.5556,
        "meta_ephemeris_type": 0,
        "meta_classification_type": "U",
        "meta_norad_cat_id": 34420,
        "meta_element_set_no": 999,
        "meta_rev_at_epoch": 89650,
        "meta_bstar": 0.00048923,
        "meta_mean_motion_dot": 3.041e-05,
        "meta_mean_motion_ddot": 0,
        "tle_line1": "1 34420U 93036RM  25338.58085420  .00003041  00000+0  48923-3 0  9993",
        "tle_line2": "2 34420  74.0328 119.7398 0106929 242.7524 242.5556 14.68258552896503"
      },
      "geometry": {
        "type": "Point",
        "coordinates": [
          -55.743601454431456,
          -20.84077278599031
        ]
      }
    },
    {
      "type": "Feature",
      "properties": {
        "norad_id": 34425,
        "name": "COSMOS 2251 DEB",
        "group": "cosmos-2251-debris",
        "lat": 73.98558841244221,
        "lon": 161.7333344719417,
        "alt_km": 683.8817499450497,
        "timestamp": "2025-12-05T11:32:56.411498+00:00",
        "meta_object_name": "COSMOS 2251 DEB",
        "meta_object_id": "1993-036RS",
        "meta_epoch": "2025-12-04T15:25:36.317280",
        "meta_mean_motion": 14.62050752,
        "meta_eccentricity": 0.0025415,
        "meta_inclination": 74.0209,
        "meta_ra_of_asc_node": 70.0345,
        "meta_arg_of_pericenter": 198.3163,
        "meta_mean_anomaly": 161.7091,
        "meta_ephemeris_type": 0,
        "meta_classification_type": "U",
        "meta_norad_cat_id": 34425,
        "meta_element_set_no": 999,
        "meta_rev_at_epoch": 88622,
        "meta_bstar": 0.0014385,
        "meta_mean_motion_dot": 7.232e-05,
        "meta_mean_motion_ddot": 0,
        "tle_line1": "1 34425U 93036RS  25338.64278145  .00007232  00000+0  14385-2 0  9993",
        "tle_line2": "2 34425  74.0209  70.0345 0025415 198.3163 161.7091 14.62050752886222"
      },
      "geometry": {
        "type": "Point",
        "coordinates": [
          161.7333344719417,
          73.98558841244221
        ]
      }
    },
    {
      "type": "Feature",
      "properties": {
        "norad_id": 34429,
        "name": "COSMOS 2251 DEB",
        "group": "cosmos-2251-debris",
        "lat": -70.4896119990745,
        "lon": 129.52521965477027,
        "alt_km": 459.7820261309207,
        "timestamp": "2025-12-05T11:32:56.411508+00:00",
        "meta_object_name": "COSMOS 2251 DEB",
        "meta_object_id": "1993-036RW",
        "meta_epoch": "2025-12-04T15:53:03.019200",
        "meta_mean_motion": 15.37630123,
        "meta_eccentricity": 0.0005634,
        "meta_inclination": 73.9718,
        "meta_ra_of_asc_node": 185.5249,
        "meta_arg_of_pericenter": 33.6922,
        "meta_mean_anomaly": 33.2831,
        "meta_ephemeris_type": 0,
        "meta_classification_type": "U",
        "meta_norad_cat_id": 34429,
        "meta_element_set_no": 999,
        "meta_rev_at_epoch": 89324,
        "meta_bstar": 0.0085997,
        "meta_mean_motion_dot": 0.00332153,
        "meta_mean_motion_ddot": 0,
        "tle_line1": "1 34429U 93036RW  25338.66184050  .00332153  00000+0  85997-2 0  9990",
        "tle_line2": "2 34429  73.9718 185.5249 0005634  33.6922  33.2831 15.37630123893243"
      },
      "geometry": {
        "type": "Point",
        "coordinates": [
          129.52521965477027,
          -70.4896119990745
        ]
      }
    },
    {
      "type": "Feature",
      "properties": {
        "norad_id": 34430,
        "name": "COSMOS 2251 DEB",
        "group": "cosmos-2251-debris",
        "lat": 71.07781733606805,
        "lon": 80.2247469996433,
        "alt_km": 739.1807220468645,
        "timestamp": "2025-12-05T11:32:56.411518+00:00",
        "meta_object_name": "COSMOS 2251 DEB",
        "meta_object_id": "1993-036RX",
        "meta_epoch": "2025-12-04T00:03:56.040480",
        "meta_mean_motion": 14.39589148,
        "meta_eccentricity": 0.00599246,
        "meta_inclination": 74.0511,
        "meta_ra_of_asc_node": 319.4823,
        "meta_arg_of_pericenter": 31.3534,
        "meta_mean_anomaly": 329.117,
        "meta_ephemeris_type": 0,
        "meta_classification_type": "U",
        "meta_norad_cat_id": 34430,
        "meta_element_set_no": 999,
        "meta_rev_at_epoch": 87829,
        "meta_bstar": 0.00082100269,
        "meta_mean_motion_dot": 2.594e-05,
        "meta_mean_motion_ddot": 0,
        "tle_line1": "1 34430U 93036RX  25338.00273195  .00002594  00000+0  82100-3 0  9996",
        "tle_line2": "2 34430  74.0511 319.4823 0059924  31.3534 329.1170 14.39589148878291"
      },
      "geometry": {
        "type": "Point",
        "coordinates": [
          80.2247469996433,
          71.07781733606805
        ]
      }
    },
    {
      "type": "Feature",
      "properties": {
        "norad_id": 34431,
        "name": "COSMOS 2251 DEB",
        "group": "cosmos-2251-debris",
        "lat": -67.83465305262207,
        "lon": 143.8406428086143,
        "alt_km": 819.1054088590708,
        "timestamp": "2025-12-05T11:32:56.411529+00:00",
        "meta_object_name": "COSMOS 2251 DEB",
        "meta_object_id": "1993-036RY",
        "meta_epoch": "2025-12-04T15:44:04.334208",
        "meta_mean_motion": 14.28737288,
        "meta_eccentricity": 0.006867,
        "meta_inclination": 74.0742,
        "meta_ra_of_asc_node": 189.8318,
        "meta_arg_of_pericenter": 177.7077,
        "meta_mean_anomaly": 182.4402,
        "meta_ephemeris_type": 0,
        "meta_classification_type": "U",
        "meta_norad_cat_id": 34431,
        "meta_element_set_no": 999,
        "meta_rev_at_epoch": 87027,
        "meta_bstar": 0.00095752,
        "meta_mean_motion_dot": 2.447e-05,
        "meta_mean_motion_ddot": 0,
        "tle_line1": "1 34431U 93036RY  25338.65560572  .00002447  00000+0  95752-3 0  9990",
        "tle_line2": "2 34431  74.0742 189.8318 0068670 177.7077 182.4402 14.28737288870277"
      },
      "geometry": {
        "type": "Point",
        "coordinates": [
          143.8406428086143,
          -67.83465305262207
        ]
      }
    },
    {
      "type": "Feature",
      "properties": {
        "norad_id": 34432,
        "name": "COSMOS 2251 DEB",
        "group": "cosmos-2251-debris",
        "lat": -62.68319822978942,
        "lon": -30.706545913432468,
        "alt_km": 801.7059520729645,
        "timestamp": "2025-12-05T11:32:56.411539+00:00",
        "meta_object_name": "COSMOS 2251 DEB",
        "meta_object_id": "1993-036RZ",
        "meta_epoch": "2025-12-04T17:34:26.171040",
        "meta_mean_motion": 14.02851823,
        "meta_eccentricity": 0.0183102,
        "meta_inclination": 73.8279,
        "meta_ra_of_asc_node": 116.4313,
        "meta_arg_of_pericenter": 200.3345,
        "meta_mean_anomaly": 224.7344,
        "meta_ephemeris_type": 0,
        "meta_classification_type": "U",
        "meta_norad_cat_id": 34432,
        "meta_element_set_no": 999,
        "meta_rev_at_epoch": 85572,
        "meta_bstar": 0.0023611,
        "meta_mean_motion_dot": 4.215e-05,
        "meta_mean_motion_ddot": 0,
        "tle_line1": "1 34432U 93036RZ  25338.73224735  .00004215  00000+0  23611-2 0  9997",
        "tle_line2": "2 34432  73.8279 116.4313 0183102 200.3345 224.7344 14.02851823855722"
      },
      "geometry": {
        "type": "Point",
        "coordinates": [
          -30.706545913432468,
          -62.68319822978942
        ]
      }
    },
    {
      "type": "Feature",
      "properties": {
        "norad_id": 34433,
        "name": "COSMOS 2251 DEB",
        "group": "cosmos-2251-debris",
        "lat": 11.761021827461974,
        "lon": 171.21723722082203,
        "alt_km": 802.7820873204573,
        "timestamp": "2025-12-05T11:32:56.411549+00:00",
        "meta_object_name": "COSMOS 2251 DEB",
        "meta_object_id": "1993-036SA",
        "meta_epoch": "2025-12-03T23:48:16.288416",
        "meta_mean_motion": 14.12791215,
        "meta_eccentricity": 0.01517985,
        "meta_inclination": 74.0107,
        "meta_ra_of_asc_node": 170.4313,
        "meta_arg_of_pericenter": 310.4463,
        "meta_mean_anomaly": 48.3519,
        "meta_ephemeris_type": 0,
        "meta_classification_type": "U",
        "meta_norad_cat_id": 34433,
        "meta_element_set_no": 999,
        "meta_rev_at_epoch": 85826,
        "meta_bstar": 0.0024084463,
        "meta_mean_motion_dot": 4.967e-05,
        "meta_mean_motion_ddot": 0,
        "tle_line1": "1 34433U 93036SA  25337.99185519  .00004967  00000+0  24084-2 0  9990",
        "tle_line2": "2 34433  74.0107 170.4313 0151798 310.4463  48.3519 14.12791215858261"
      },
      "geometry": {
        "type": "Point",
        "coordinates": [
          171.21723722082203,
          11.761021827461974
        ]
      }
    }
  ]
}